{
  "type": "FeatureCollection",
  "features": [
    {
      "type": "Feature",
      "properties": {
        "norad_id": 32275,
        "name": "COSMOS 2433 (720)",
        "group": "glo-ops",
        "lat": 2.2071694002974374,
        "lon": 141.4291574460059,
        "alt_km": 19126.477552337255,
        "timestamp": "2025-12-05T19:30:25.826409+00:00",
        "meta_object_name": "COSMOS 2433 (720)",
        "meta_object_id": "2007-052A",
        "meta_epoch": "2025-12-05T02:41:16.124352",
        "meta_mean_motion": 2.13103909,
        "meta_eccentricity": 0.00055104,
        "meta_inclination": 65.6874,
        "meta_ra_of_asc_node": 322.462,
        "meta_arg_of_pericenter": 252.9111,
        "meta_mean_anomaly": 107.0273,
        "meta_ephemeris_type": 0,
        "meta_classification_type": "U",
        "meta_norad_cat_id": 32275,
        "meta_element_set_no": 999,
        "meta_rev_at_epoch": 14092,
        "meta_bstar": 0,
        "meta_mean_motion_dot": -4.7e-07,
        "meta_mean_motion_ddot": 0,
        "tle_line1": "1 32275U 07052A   25339.11199218 -.00000047  00000+0  00000+0 0  9997",
        "tle_line2": "2 32275  65.6874 322.4620 0005510 252.9111 107.0273  2.13103909140922"
      },
      "geometry": {
        "type": "Point",
        "coordinates": [
          141.4291574460059,
          2.2071694002974374
        ]
      }
    },
    {
      "type": "Feature",
      "properties": {
        "norad_id": 32276,
        "name": "COSMOS 2432 (719)",
        "group": "glo-ops",
        "lat": 50.50896211428015,
        "lon": 109.30585984610148,
        "alt_km": 19152.448348569887,
        "timestamp": "2025-12-05T19:30:25.826433+00:00",
        "meta_object_name": "COSMOS 2432 (719)",
        "meta_object_id": "2007-052B",
        "meta_epoch": "2025-12-04T17:08:15.006912",
        "meta_mean_motion": 2.13103047,
        "meta_eccentricity": 0.00112577,
        "meta_inclination": 65.7035,
        "meta_ra_of_asc_node": 322.5994,
        "meta_arg_of_pericenter": 311.684,
        "meta_mean_anomaly": 47.4656,
        "meta_ephemeris_type": 0,
        "meta_classification_type": "U",
        "meta_norad_cat_id": 32276,
        "meta_element_set_no": 999,
        "meta_rev_at_epoch": 14093,
        "meta_bstar": 0,
        "meta_mean_motion_dot": -4.6e-07,
        "meta_mean_motion_ddot": 0,
        "tle_line1": "1 32276U 07052B   25338.71406258 -.00000046  00000+0  00000+0 0  9997",
        "tle_line2": "2 32276  65.7035 322.5994 0011257 311.6840  47.4656  2.13103047140931"
      },
      "geometry": {
        "type": "Point",
        "coordinates": [
          109.30585984610148,
          50.50896211428015
        ]
      }
    },
    {
      "type": "Feature",
      "properties": {
        "norad_id": 32393,
        "name": "COSMOS 2434 (721)",
        "group": "glo-ops",
        "lat": 56.76200291081426,
        "lon": -114.30682992764609,
        "alt_km": 19112.578610108158,
        "timestamp": "2025-12-05T19:30:25.826449+00:00",
        "meta_object_name": "COSMOS 2434 (721)",
        "meta_object_id": "2007-065A",
        "meta_epoch": "2025-12-01T06:30:38.524608",
        "meta_mean_motion": 2.13101181,
        "meta_eccentricity": 0.00043375,
        "meta_inclination": 64.3147,
        "meta_ra_of_asc_node": 198.5905,
        "meta_arg_of_pericenter": 70.7489,
        "meta_mean_anomaly": 113.3938,
        "meta_ephemeris_type": 0,
        "meta_classification_type": "U",
        "meta_norad_cat_id": 32393,
        "meta_element_set_no": 999,
        "meta_rev_at_epoch": 13955,
        "meta_bstar": 0,
        "meta_mean_motion_dot": 1.02e-06,
        "meta_mean_motion_ddot": 0,
        "tle_line1": "1 32393U 07065A   25335.27127922  .00000102  00000+0  00000+0 0  9999",
        "tle_line2": "2 32393  64.3147 198.5905 0004337  70.7489 113.3938  2.13101181139555"
      },
      "geometry": {
        "type": "Point",
        "coordinates": [
          -114.30682992764609,
          56.76200291081426
        ]
      }
    },
    {
      "type": "Feature",
      "properties": {
        "norad_id": 32395,
        "name": "COSMOS 2436 (723)",
        "group": "glo-ops",
        "lat": -19.076046572978303,
        "lon": 28.086922189820637,
        "alt_km": 19177.189695994683,
        "timestamp": "2025-12-05T19:30:25.826462+00:00",
        "meta_object_name": "COSMOS 2436 (723)",
        "meta_object_id": "2007-065C",
        "meta_epoch": "2025-12-05T01:59:21.660576",
        "meta_mean_motion": 2.13099981,
        "meta_eccentricity": 0.00177317,
        "meta_inclination": 64.3234,
        "meta_ra_of_asc_node": 198.532,
        "meta_arg_of_pericenter": 8.9856,
        "meta_mean_anomaly": 352.3973,
        "meta_ephemeris_type": 0,
        "meta_classification_type": "U",
        "meta_norad_cat_id": 32395,
        "meta_element_set_no": 999,
        "meta_rev_at_epoch": 13959,
        "meta_bstar": 0,
        "meta_mean_motion_dot": 9.2e-07,
        "meta_mean_motion_ddot": 0,
        "tle_line1": "1 32395U 07065C   25339.08288959  .00000092  00000+0  00000+0 0  9990",
        "tle_line2": "2 32395  64.3234 198.5320 0017731   8.9856 352.3973  2.13099981139590"
      },
      "geometry": {
        "type": "Point",
        "coordinates": [
          28.086922189820637,
          -19.076046572978303
        ]
      }
    },
    {
      "type": "Feature",
      "properties": {
        "norad_id": 36111,
        "name": "COSMOS 2456 (730)",
        "group": "glo-ops",
        "lat": -40.06181536713434,
        "lon": -79.24319279106672,
        "alt_km": 19132.7118057566,
        "timestamp": "2025-12-05T19:30:25.826474+00:00",
        "meta_object_name": "COSMOS 2456 (730)",
        "meta_object_id": "2009-070A",
        "meta_epoch": "2025-12-02T04:31:21.819072",
        "meta_mean_motion": 2.13103415,
        "meta_eccentricity": 0.0002798,
        "meta_inclination": 64.8943,
        "meta_ra_of_asc_node": 77.6987,
        "meta_arg_of_pericenter": 298.3251,
        "meta_mean_anomaly": 26.4531,
        "meta_ephemeris_type": 0,
        "meta_classification_type": "U",
        "meta_norad_cat_id": 36111,
        "meta_element_set_no": 999,
        "meta_rev_at_epoch": 12422,
        "meta_bstar": 0,
        "meta_mean_motion_dot": -2.2e-07,
        "meta_mean_motion_ddot": 0,
        "tle_line1": "1 36111U 09070A   25336.18844698 -.00000022  00000+0  00000+0 0  9998",
        "tle_line2": "2 36111  64.8943  77.6987 0002798 298.3251  26.4531  2.13103415124220"
      },
      "geometry": {
        "type": "Point",
        "coordinates": [
          -79.24319279106672,
          -40.06181536713434
        ]
      }
    },
    {
      "type": "Feature",
      "properties": {
        "norad_id": 36112,
        "name": "COSMOS 2457 (733)",
        "group": "glo-ops",
        "lat": -5.020299385564283,
        "lon": 75.06982614403103,
        "alt_km": 19143.024806883837,
        "timestamp": "2025-12-05T19:30:25.826486+00:00",
        "meta_object_name": "COSMOS 2457 (733)",
        "meta_object_id": "2009-070B",
        "meta_epoch": "2025-12-04T10:10:53.328576",
        "meta_mean_motion": 2.13100784,
        "meta_eccentricity": 0.00048679,
        "meta_inclination": 64.8808,
        "meta_ra_of_asc_node": 77.4701,
        "meta_arg_of_pericenter": 156.7423,
        "meta_mean_anomaly": 212.4815,
        "meta_ephemeris_type": 0,
        "meta_classification_type": "U",
        "meta_norad_cat_id": 36112,
        "meta_element_set_no": 999,
        "meta_rev_at_epoch": 12428,
        "meta_bstar": 0,
        "meta_mean_motion_dot": -2.6e-07,
        "meta_mean_motion_ddot": 0,
        "tle_line1": "1 36112U 09070B   25338.42422834 -.00000026  00000+0  00000+0 0  9996",
        "tle_line2": "2 36112  64.8808  77.4701 0004867 156.7423 212.4815  2.13100784124284"
      },
      "geometry": {
        "type": "Point",
        "coordinates": [
          75.06982614403103,
          -5.020299385564283
        ]
      }
    },
    {
      "type": "Feature",
      "properties": {
        "norad_id": 36402,
        "name": "COSMOS 2460 (732)",
        "group": "glo-ops",
        "lat": -5.561224243116704,
        "lon": -41.544820579976744,
        "alt_km": 19130.093282695518,
        "timestamp": "2025-12-05T19:30:25.826498+00:00",
        "meta_object_name": "COSMOS 2460 (732)",
        "meta_object_id": "2010-007C",
        "meta_epoch": "2025-12-01T05:49:09.827040",
        "meta_mean_motion": 2.13106053,
        "meta_eccentricity": 0.00028009,
        "meta_inclination": 65.536,
        "meta_ra_of_asc_node": 321.162,
        "meta_arg_of_pericenter": 269.9918,
        "meta_mean_anomaly": 177.6167,
        "meta_ephemeris_type": 0,
        "meta_classification_type": "U",
        "meta_norad_cat_id": 36402,
        "meta_element_set_no": 999,
        "meta_rev_at_epoch": 12251,
        "meta_bstar": 0,
        "meta_mean_motion_dot": -2.6e-07,
        "meta_mean_motion_ddot": 0,
        "tle_line1": "1 36402U 10007C   25335.24247485 -.00000026  00000+0  00000+0 0  9994",
        "tle_line2": "2 36402  65.5360 321.1620 0002800 269.9918 177.6167  2.13106053122518"
      },
      "geometry": {
        "type": "Point",
        "coordinates": [
          -41.544820579976744,
          -5.561224243116704
        ]
      }
    }
  ]
}